{
  "type": "FeatureCollection",
  "features": [
    {
      "type": "Feature",
      "properties": {
        "norad_id": 36083,
        "name": "IRIDIUM 33 DEB",
        "group": "iridium-33-debris",
        "lat": 16.797862018097344,
        "lon": -144.42119218245753,
        "alt_km": 745.7072696057585,
        "timestamp": "2025-12-06T20:37:56.460808+00:00",
        "meta_object_name": "IRIDIUM 33 DEB",
        "meta_object_id": "1997-051VQ",
        "meta_epoch": "2025-12-06T09:53:32.490240",
        "meta_mean_motion": 14.43173042,
        "meta_eccentricity": 0.00247488,
        "meta_inclination": 86.3443,
        "meta_ra_of_asc_node": 36.8772,
        "meta_arg_of_pericenter": 245.0182,
        "meta_mean_anomaly": 114.8448,
        "meta_ephemeris_type": 0,
        "meta_classification_type": "U",
        "meta_norad_cat_id": 36083,
        "meta_element_set_no": 999,
        "meta_rev_at_epoch": 85358,
        "meta_bstar": 0.0011202565,
        "meta_mean_motion_dot": 3.795e-05,
        "meta_mean_motion_ddot": 0,
        "tle_line1": "1 36083U 97051VQ  25340.41218160  .00003795  00000+0  11203-2 0  9991",
        "tle_line2": "2 36083  86.3443  36.8772 0024748 245.0182 114.8448 14.43173042853588"
      },
      "geometry": {
        "type": "Point",
        "coordinates": [
          -144.42119218245753,
          16.797862018097344
        ]
      }
    },
    {
      "type": "Feature",
      "properties": {
        "norad_id": 36390,
        "name": "IRIDIUM 33 DEB",
        "group": "iridium-33-debris",
        "lat": 59.36156801824977,
        "lon": -51.622059713728,
        "alt_km": 655.4705117336653,
        "timestamp": "2025-12-06T20:37:56.460819+00:00",
        "meta_object_name": "IRIDIUM 33 DEB",
        "meta_object_id": "1997-051VU",
        "meta_epoch": "2025-11-30T04:37:26.668128",
        "meta_mean_motion": 14.73329322,
        "meta_eccentricity": 0.00285998,
        "meta_inclination": 86.289,
        "meta_ra_of_asc_node": 305.1428,
        "meta_arg_of_pericenter": 206.0853,
        "meta_mean_anomaly": 153.8925,
        "meta_ephemeris_type": 0,
        "meta_classification_type": "U",
        "meta_norad_cat_id": 36390,
        "meta_element_set_no": 999,
        "meta_rev_at_epoch": 66077,
        "meta_bstar": 0.001268982,
        "meta_mean_motion_dot": 8.29e-05,
        "meta_mean_motion_ddot": 0,
        "tle_line1": "1 36390U 97051VU  25334.19266977  .00008290  00000+0  12690-2 0  9995",
        "tle_line2": "2 36390  86.2890 305.1428 0028599 206.0853 153.8925 14.73329322660771"
      },
      "geometry": {
        "type": "Point",
        "coordinates": [
          -51.622059713728,
          59.36156801824977
        ]
      }
    },
    {
      "type": "Feature",
      "properties": {
        "norad_id": 36483,
        "name": "IRIDIUM 33 DEB",
        "group": "iridium-33-debris",
        "lat": -85.86032905899363,
        "lon": -5.988744942350064,
        "alt_km": 751.6692366835441,
        "timestamp": "2025-12-06T20:37:56.460831+00:00",
        "meta_object_name": "IRIDIUM 33 DEB",
        "meta_object_id": "1997-051VZ",
        "meta_epoch": "2025-12-05T11:49:05.492352",
        "meta_mean_motion": 14.45768404,
        "meta_eccentricity": 0.00105609,
        "meta_inclination": 86.3804,
        "meta_ra_of_asc_node": 55.5915,
        "meta_arg_of_pericenter": 147.4129,
        "meta_mean_anomaly": 212.7727,
        "meta_ephemeris_type": 0,
        "meta_classification_type": "U",
        "meta_norad_cat_id": 36483,
        "meta_element_set_no": 999,
        "meta_rev_at_epoch": 65041,
        "meta_bstar": 0.0010569491,
        "meta_mean_motion_dot": 3.767e-05,
        "meta_mean_motion_ddot": 0,
        "tle_line1": "1 36483U 97051VZ  25339.49242468  .00003767  00000+0  10569-2 0  9992",
        "tle_line2": "2 36483  86.3804  55.5915 0010560 147.4129 212.7727 14.45768404650412"
      },
      "geometry": {
        "type": "Point",
        "coordinates": [
          -5.988744942350064,
          -85.86032905899363
        ]
      }
    },
    {
      "type": "Feature",
      "properties": {
        "norad_id": 36490,
        "name": "IRIDIUM 33 DEB",
        "group": "iridium-33-debris",
        "lat": -68.16555452195841,
        "lon": -157.7556372661809,
        "alt_km": 652.7293316960349,
        "timestamp": "2025-12-06T20:37:56.460846+00:00",
        "meta_object_name": "IRIDIUM 33 DEB",
        "meta_object_id": "1997-051WG",
        "meta_epoch": "2025-12-06T13:00:08.149536",
        "meta_mean_motion": 14.75996882,
        "meta_eccentricity": 0.0005444,
        "meta_inclination": 86.365,
        "meta_ra_of_asc_node": 13.2585,
        "meta_arg_of_pericenter": 96.103,
        "meta_mean_anomaly": 264.0809,
        "meta_ephemeris_type": 0,
        "meta_classification_type": "U",
        "meta_norad_cat_id": 36490,
        "meta_element_set_no": 999,
        "meta_rev_at_epoch": 86393,
        "meta_bstar": 0.0025653876,
        "meta_mean_motion_dot": 0.00017711,
        "meta_mean_motion_ddot": 0,
        "tle_line1": "1 36490U 97051WG  25340.54176099  .00017711  00000+0  25654-2 0  9999",
        "tle_line2": "2 36490  86.3650  13.2585 0005444  96.1030 264.0809 14.75996882863939"
      },
      "geometry": {
        "type": "Point",
        "coordinates": [
          -157.7556372661809,
          -68.16555452195841
        ]
      }
    },
    {
      "type": "Feature",
      "properties": {
        "norad_id": 36493,
        "name": "IRIDIUM 33 DEB",
        "group": "iridium-33-debris",
        "lat": 41.79461586534406,
        "lon": 17.55726469521185,
        "alt_km": 665.9032091042172,
        "timestamp": "2025-12-06T20:37:56.460857+00:00",
        "meta_object_name": "IRIDIUM 33 DEB",
        "meta_object_id": "1997-051WK",
        "meta_epoch": "2025-12-04T20:54:22.682304",
        "meta_mean_motion": 14.65078368,
        "meta_eccentricity": 0.0011123,
        "meta_inclination": 86.3577,
        "meta_ra_of_asc_node": 15.1759,
        "meta_arg_of_pericenter": 30.554,
        "meta_mean_anomaly": 329.6318,
        "meta_ephemeris_type": 0,
        "meta_classification_type": "U",
        "meta_norad_cat_id": 36493,
        "meta_element_set_no": 999,
        "meta_rev_at_epoch": 74403,
        "meta_bstar": 0.0027859,
        "meta_mean_motion_dot": 0.00015002,
        "meta_mean_motion_ddot": 0,
        "tle_line1": "1 36493U 97051WK  25338.87109586  .00015002  00000+0  27859-2 0  9992",
        "tle_line2": "2 36493  86.3577  15.1759 0011123  30.5540 329.6318 14.65078368744034"
      },
      "geometry": {
        "type": "Point",
        "coordinates": [
          17.55726469521185,
          41.79461586534406
        ]
      }
    },
    {
      "type": "Feature",
      "properties": {
        "norad_id": 37548,
        "name": "IRIDIUM 33 DEB",
        "group": "iridium-33-debris",
        "lat": 17.233984706897594,
        "lon": -135.20659941964502,
        "alt_km": 710.4636600780032,
        "timestamp": "2025-12-06T20:37:56.460870+00:00",
        "meta_object_name": "IRIDIUM 33 DEB",
        "meta_object_id": "1997-051XH",
        "meta_epoch": "2025-11-29T22:23:36.250944",
        "meta_mean_motion": 14.5113469,
        "meta_eccentricity": 0.00243457,
        "meta_inclination": 86.3524,
        "meta_ra_of_asc_node": 48.9393,
        "meta_arg_of_pericenter": 232.6782,
        "meta_mean_anomaly": 127.2204,
        "meta_ephemeris_type": 0,
        "meta_classification_type": "U",
        "meta_norad_cat_id": 37548,
        "meta_element_set_no": 999,
        "meta_rev_at_epoch": 65346,
        "meta_bstar": 0.0012745087,
        "meta_mean_motion_dot": 5.093e-05,
        "meta_mean_motion_ddot": 0,
        "tle_line1": "1 37548U 97051XH  25333.93305846  .00005093  00000+0  12745-2 0  9990",
        "tle_line2": "2 37548  86.3524  48.9393 0024345 232.6782 127.2204 14.51134690653467"
      },
      "geometry": {
        "type": "Point",
        "coordinates": [
          -135.20659941964502,
          17.233984706897594
        ]
      }
    },
    {
      "type": "Feature",
      "properties": {
        "norad_id": 37550,
        "name": "IRIDIUM 33 DEB",
        "group": "iridium-33-debris",
        "lat": -43.24978432359201,
        "lon": -150.10264810114322,
        "alt_km": 677.7499806474525,
        "timestamp": "2025-12-06T20:37:56.460881+00:00",
        "meta_object_name": "IRIDIUM 33 DEB",
        "meta_object_id": "1997-051XK",
        "meta_epoch": "2025-12-06T09:47:47.190048",
        "meta_mean_motion": 14.67081811,
        "meta_eccentricity": 0.00053512,
        "meta_inclination": 86.3778,
        "meta_ra_of_asc_node": 26.6811,
        "meta_arg_of_pericenter": 125.1946,
        "meta_mean_anomaly": 234.9769,
        "meta_ephemeris_type": 0,
        "meta_classification_type": "U",
        "meta_norad_cat_id": 37550,
        "meta_element_set_no": 999,
        "meta_rev_at_epoch": 86240,
        "meta_bstar": 0.0023372451,
        "meta_mean_motion_dot": 0.00013154,
        "meta_mean_motion_ddot": 0,
        "tle_line1": "1 37550U 97051XK  25340.40818507  .00013154  00000+0  23372-2 0  9991",
        "tle_line2": "2 37550  86.3778  26.6811 0005351 125.1946 234.9769 14.67081811862404"
      },
      "geometry": {
        "type": "Point",
        "coordinates": [
          -150.10264810114322,
          -43.24978432359201
        ]
      }
    }
  ]
}